[{"OBJECT_NAME":"GLOBALSTAR M085","OBJECT_ID":"2011-033D","EPOCH":"2026-03-09T12:08:03.063264","MEAN_MOTION":12.62269695,"ECCENTRICITY":7.483e-5,"INCLINATION":52.0119,"RA_OF_ASC_NODE":136.5937,"ARG_OF_PERICENTER":109.258,"MEAN_ANOMALY":354.277,"EPHEMERIS_TYPE":0,"CLASSIFICATION_TYPE":"U","NORAD_CAT_ID":37742,"ELEMENT_SET_NO":999,"REV_AT_EPOCH":67720,"BSTAR":0.00012590606,"MEAN_MOTION_DOT":-8.1e-7,"MEAN_MOTION_DDOT":0},{"OBJECT_NAME":"COSMOS 2157","OBJECT_ID":"1991-068A","EPOCH":"2026-03-09T22:41:07.794240","MEAN_MOTION":12.6324759,"ECCENTRICITY":0.00054356,"INCLINATION":82.5828,"RA_OF_ASC_NODE":21.2079,"ARG_OF_PERICENTER":20.2956,"MEAN_ANOMALY":339.8351,"EPHEMERIS_TYPE":0,"CLASSIFICATION_TYPE":"U","NORAD_CAT_ID":21728,"ELEMENT_SET_NO":999,"REV_AT_EPOCH":58818,"BSTAR":0.000134918,"MEAN_MOTION_DOT":3.5e-7,"MEAN_MOTION_DDOT":0}]
